     2              NAVIGATION DATA                         RINEX VERSION / TYPE
CCRINEXN V1.6.0 UX  CDDIS               09-APR-23 23:31     PGM / RUN BY / DATE 
IGS BROADCAST EPHEMERIS FILE                                COMMENT             
    0.2608D-07  0.1490D-07 -0.1192D-06 -0.5960D-07          ION ALPHA           
    0.1290D+06  0.1638D+05 -0.2621D+06  0.3277D+06          ION BETA            
   -0.931322574615D-09-0.177635683940D-14   147456     2257 DELTA-UTC: A0,A1,T,W
    18                                                      LEAP SECONDS        
                                                            END OF HEADER       
24 23  4  8 20  0  0.0-0.144160818309D-03-0.147792889038D-10 0.000000000000D+00
    0.920000000000D+02-0.625000000000D+01 0.496270671665D-08 0.152078421644D+01
   -0.344589352608D-06 0.137914215447D-01 0.108014792204D-04 0.515366122436D+04
    0.590400000000D+06-0.298023223877D-06 0.218681675827D-01 0.428408384323D-07
    0.934452093783D+00 0.157937500000D+03 0.889199707354D+00-0.828320217148D-08
   -0.443589905872D-09 0.100000000000D+01 0.225600000000D+04 0.000000000000D+00
    0.200000000000D+01 0.000000000000D+00 0.232830643654D-08 0.920000000000D+02
    0.583249000000D+06 0.400000000000D+01 0.000000000000D+00 0.000000000000D+00
25 23  4  8 20  0  0.0 0.434102956206D-03 0.284217094304D-11 0.000000000000D+00
    0.420000000000D+02 0.128343750000D+03 0.478769942690D-08-0.296647966544D+00
    0.675581395626D-05 0.111671471968D-01 0.747106969357D-05 0.515375743866D+04
    0.590400000000D+06 0.558793544769D-08 0.114422082711D+01 0.167638063431D-06
    0.953542671474D+00 0.238968750000D+03 0.104497905836D+01-0.842142221461D-08
    0.353228999120D-09 0.100000000000D+01 0.225600000000D+04 0.000000000000D+00
    0.200000000000D+01 0.000000000000D+00 0.558793544769D-08 0.420000000000D+02
    0.589897000000D+06 0.400000000000D+01 0.000000000000D+00 0.000000000000D+00
26 23  4  8 20  0  0.0 0.241839326918D-03-0.227373675443D-12 0.000000000000D+00
    0.910000000000D+02 0.137218750000D+03 0.506485382864D-08-0.103621680958D+01
    0.714138150215D-05 0.789193680976D-02 0.772438943386D-05 0.515367456436D+04
    0.590400000000D+06 0.175088644028D-06 0.108942788583D+01-0.502914190292D-07
    0.934376067394D+00 0.211812500000D+03 0.462311729825D+00-0.841427905993D-08
    0.355729103259D-09 0.100000000000D+01 0.225600000000D+04 0.000000000000D+00
    0.280000000000D+01 0.000000000000D+00 0.698491930962D-08 0.910000000000D+02
    0.583218000000D+06 0.400000000000D+01 0.000000000000D+00 0.000000000000D+00
27 23  4  8 20  0  0.0 0.632242299616D-04-0.818545231596D-11 0.000000000000D+00
    0.680000000000D+02-0.230000000000D+02 0.479769984346D-08-0.282943432486D+01
   -0.133365392685D-05 0.115582906874D-01 0.107474625111D-05 0.515366426468D+04
    0.590400000000D+06-0.111758708954D-07 0.220027718016D+01-0.257045030594D-06
    0.967976118216D+00 0.362812500000D+03 0.722068782069D+00-0.840177853923D-08
   -0.764317551180D-10 0.100000000000D+01 0.225600000000D+04 0.000000000000D+00
    0.280000000000D+01 0.000000000000D+00 0.186264514923D-08 0.680000000000D+02
    0.583218000000D+06 0.400000000000D+01 0.000000000000D+00 0.000000000000D+00
28 23  4  8 20  0  0.0 0.614146701992D-04 0.704858393874D-11 0.000000000000D+00
    0.156000000000D+03 0.734375000000D+01 0.420231790055D-08-0.959226081879D+00
    0.428408384323D-06 0.844038557261D-03 0.114813446999D-04 0.515366208649D+04
    0.590400000000D+06 0.223517417908D-07 0.737712429255D-01-0.204890966415D-07
    0.962059104663D+00 0.158718750000D+03 0.170825432877D+01-0.778353850134D-08
   -0.393230665350D-09 0.100000000000D+01 0.225600000000D+04 0.000000000000D+00
    0.280000000000D+01 0.000000000000D+00-0.139698386192D-08 0.924000000000D+03
    0.583218000000D+06 0.400000000000D+01 0.000000000000D+00 0.000000000000D+00
29 23  4  8 20  0  0.0-0.594648998231D-03-0.170530256582D-11 0.000000000000D+00
    0.270000000000D+02-0.428750000000D+02 0.462697844651D-08-0.273251060833D+01
   -0.210478901863D-05 0.237375032157D-02 0.156834721565D-05 0.515355321503D+04
    0.590400000000D+06-0.800937414169D-07 0.227961920635D+01-0.745058059692D-08
    0.976912926767D+00 0.360343750000D+03 0.238387345470D+01-0.834713340590D-08
   -0.126076680171D-09 0.100000000000D+01 0.225600000000D+04 0.000000000000D+00
    0.200000000000D+01 0.000000000000D+00-0.102445483208D-07 0.270000000000D+02
    0.583218000000D+06 0.400000000000D+01 0.000000000000D+00 0.000000000000D+00
30 23  4  8 20  0  0.0-0.523305963725D-03 0.181898940355D-11 0.000000000000D+00
    0.550000000000D+02 0.162500000000D+01 0.487591738725D-08 0.479582314540D+00
    0.188127160072D-06 0.634433492087D-02 0.108946114779D-04 0.515361648560D+04
    0.590400000000D+06-0.447034835815D-07 0.118502318497D+00 0.191852450371D-06
    0.936038556757D+00 0.157375000000D+03-0.261562860327D+01-0.814926802115D-08
   -0.356800576462D-09 0.100000000000D+01 0.225600000000D+04 0.000000000000D+00
    0.200000000000D+01 0.000000000000D+00 0.372529029846D-08 0.550000000000D+02
    0.583274000000D+06 0.400000000000D+01 0.000000000000D+00 0.000000000000D+00
31 23  4  8 20  0  0.0-0.213527120650D-03-0.909494701773D-12 0.000000000000D+00
    0.170000000000D+02 0.128437500000D+02 0.442732727309D-08-0.118118181079D+00
    0.877305865288D-06 0.106111037312D-01 0.114887952805D-04 0.515419758797D+04
    0.590400000000D+06 0.124797224999D-06 0.131422622257D+00 0.726431608200D-07
    0.955011670904D+00 0.155468750000D+03 0.522498553922D+00-0.802569144512D-08
   -0.346085844436D-09 0.100000000000D+01 0.225600000000D+04 0.000000000000D+00
    0.200000000000D+01 0.000000000000D+00-0.135041773319D-07 0.170000000000D+02
    0.583218000000D+06 0.400000000000D+01 0.000000000000D+00 0.000000000000D+00
32 23  4  8 20  0  0.0-0.446233432740D-03-0.102318153950D-10 0.000000000000D+00
    0.480000000000D+02-0.202812500000D+02 0.482127225391D-08-0.218630308384D+01
   -0.102445483208D-05 0.682504428551D-02 0.500492751598D-05 0.515371876717D+04
    0.590400000000D+06 0.204890966415D-07-0.946983744097D+00-0.117346644402D-06
    0.959224750624D+00 0.283062500000D+03-0.222094002759D+01-0.806605026908D-08
   -0.735744932444D-10 0.100000000000D+01 0.225600000000D+04 0.000000000000D+00
    0.200000000000D+01 0.000000000000D+00 0.465661287308D-09 0.480000000000D+02
    0.583218000000D+06 0.400000000000D+01 0.000000000000D+00 0.000000000000D+00
23 23  4  8 20 14 40.0 0.155507586896D-04 0.250111042988D-11 0.000000000000D+00
    0.147000000000D+03 0.121250000000D+02 0.424517682865D-08 0.453724552843D+00
    0.532716512680D-06 0.306604057550D-02 0.969134271145D-05 0.515365124702D+04
    0.591280000000D+06 0.521540641785D-07-0.201476957974D+01 0.484287738800D-07
    0.972959220960D+00 0.197281250000D+03-0.308438771736D+01-0.787318509262D-08
    0.468948105000D-09 0.100000000000D+01 0.225600000000D+04 0.000000000000D+00
    0.200000000000D+01 0.000000000000D+00-0.838190317154D-08 0.403000000000D+03
    0.589836000000D+06 0.400000000000D+01 0.000000000000D+00 0.000000000000D+00
28 23  4  8 20 29 36.0 0.614286400378D-04 0.704858393874D-11 0.000000000000D+00
    0.157000000000D+03 0.837500000000D+01 0.418588864478D-08-0.700062329229D+00
    0.445172190666D-06 0.844139256515D-03 0.114943832159D-04 0.515366234207D+04
    0.592176000000D+06 0.558793544769D-08 0.737574563855D-01-0.130385160446D-07
    0.962058422943D+00 0.158281250000D+03 0.170813629176D+01-0.777568103118D-08
   -0.401445293236D-09 0.100000000000D+01 0.225600000000D+04 0.000000000000D+00
    0.200000000000D+01 0.000000000000D+00-0.139698386192D-08 0.925000000000D+03
    0.585018000000D+06 0.400000000000D+01 0.000000000000D+00 0.000000000000D+00
 7 23  4  8 21 59 28.0 0.205653253943D-03-0.841282599140D-11 0.000000000000D+00
    0.100000000000D+01-0.184375000000D+01 0.453054585828D-08 0.166950505647D+01
   -0.119209289551D-06 0.170523432316D-01 0.117588788271D-04 0.515376355553D+04
    0.597568000000D+06-0.396743416786D-06 0.111599191366D+00-0.158324837685D-06
    0.950906459448D+00 0.151062500000D+03-0.220772868067D+01-0.805354974839D-08
   -0.498592196938D-09 0.100000000000D+01 0.225600000000D+04 0.000000000000D+00
    0.200000000000D+01 0.000000000000D+00-0.111758708954D-07 0.100000000000D+01
    0.592206000000D+06 0.400000000000D+01 0.000000000000D+00 0.000000000000D+00
 3 23  4  8 21 59 44.0-0.333533156663D-03 0.829913915368D-11 0.000000000000D+00
    0.970000000000D+02 0.493750000000D+01 0.409695636896D-08 0.113497299778D+01
    0.290572643280D-06 0.462205603253D-02 0.990927219391D-05 0.515369230080D+04
    0.597584000000D+06-0.651925802231D-07-0.198519721303D+01 0.968575477600D-07
    0.978070715246D+00 0.198187500000D+03 0.100596938957D+01-0.780568228085D-08
    0.473233997810D-09 0.100000000000D+01 0.225600000000D+04 0.000000000000D+00
    0.200000000000D+01 0.000000000000D+00 0.186264514923D-08 0.970000000000D+02
    0.596016000000D+06 0.400000000000D+01 0.000000000000D+00 0.000000000000D+00
 8 23  4  8 21 59 44.0-0.116842333227D-03-0.181898940355D-11 0.000000000000D+00
    0.310000000000D+02-0.191250000000D+02 0.503556689443D-08-0.180111020116D+01
   -0.124424695969D-05 0.845486193430D-02 0.737607479095D-06 0.515367790031D+04
    0.597584000000D+06 0.409781932831D-07 0.217727219503D+01-0.124797224999D-06
    0.959091913274D+00 0.364000000000D+03 0.251210658492D+00-0.863107380458D-08
    0.732173355102D-10 0.100000000000D+01 0.225600000000D+04 0.000000000000D+00
    0.200000000000D+01 0.000000000000D+00 0.512227416039D-08 0.310000000000D+02
    0.590748000000D+06 0.400000000000D+01 0.000000000000D+00 0.000000000000D+00
